OBJECT_NAME,OBJECT_ID,EPOCH,MEAN_MOTION,ECCENTRICITY,INCLINATION,RA_OF_ASC_NODE,ARG_OF_PERICENTER,MEAN_ANOMALY,EPHEMERIS_TYPE,CLASSIFICATION_TYPE,NORAD_CAT_ID,ELEMENT_SET_NO,REV_AT_EPOCH,BSTAR,MEAN_MOTION_DOT,MEAN_MOTION_DDOT
STARLINK-11522 [DTC],2025-043K,2026-06-06T01:35:39.215904,15.70937900,.0001663,43.0005,77.8173,243.9239,116.1458,0,U,63141,999,7319,.24525E-2,.328343E-2,0
STARLINK-11503 [DTC],2025-043L,2026-06-06T11:53:37.935744,15.70946035,.00021218,42.9988,75.0057,273.9523,86.1102,0,U,63142,999,7326,.17279095E-2,.228487E-2,0
STARLINK-11579 [DTC],2025-043M,2026-06-06T01:20:21.810336,15.70942992,.0001726,42.9998,77.7303,237.3555,122.7147,0,U,63143,999,7325,.27063E-2,.364027E-2,0
STARLINK-11581 [DTC],2025-043N,2026-06-06T11:07:58.191744,15.70863716,.00040206,42.9999,75.6439,288.6316,71.4115,0,U,63144,999,7343,.17798782E-2,.234785E-2,0
STARLINK-32949,2025-043P,2026-06-06T12:20:05.783712,15.27605607,.00040775,42.9999,234.8742,288.8373,71.2037,0,U,63145,999,7151,.75694164E-3,.20645E-3,0
STARLINK-32952,2025-043Q,2026-06-05T23:04:44.363712,15.27643059,.00014234,42.9999,244.5186,257.1950,102.8743,0,U,63146,999,7141,.11635716E-2,.31958E-3,0
STARLINK-32936,2025-043R,2026-06-06T05:25:04.977984,15.27559558,.00022024,43.0035,243.0845,274.7702,85.2899,0,U,63147,999,7082,.53232408E-3,.14406E-3,0
STARLINK-32937,2025-043S,2026-06-06T11:43:05.516256,15.27609280,.00017952,42.9993,234.6845,272.7303,87.3344,0,U,63148,999,7094,.89941303E-3,.24593E-3,0
STARLINK-32939,2025-043T,2026-06-06T11:28:18.672096,15.27629819,.00038108,43.0066,234.6156,296.1919,63.8540,0,U,63149,999,7094,.14590484E-2,.40173E-3,0
STARLINK-32919,2025-043U,2026-06-06T11:48:37.237824,15.27635390,.0001724,43.0000,234.7108,272.1287,87.9367,0,U,63150,999,7094,.10000571E-2,.27406E-3,0
STARLINK-32876,2025-043V,2026-06-06T12:34:41.331936,15.27602839,.00046711,43.0040,234.0869,287.1855,72.8485,0,U,63151,999,7095,.73120425E-3,.19932E-3,0
STARLINK-32915,2025-043W,2026-06-05T23:10:18.027552,15.27609116,.00003626,42.9983,244.5161,223.7596,136.3227,0,U,63152,999,7078,.87007168E-3,.23779E-3,0
SEDNA-2,2025-009DQ,2026-06-06T11:06:25.052544,15.11771142,.00107347,97.4542,231.2696,100.2635,259.9807,0,U,63153,999,7650,.53085773E-3,.901E-4,0
QIANFAN-73,2025-046A,2026-06-06T15:41:36.086496,13.51016600,.00138967,88.9701,301.7796,342.3283,17.7383,0,U,63159,999,7116,.18822004E-3,.134E-5,0
QIANFAN-74,2025-046B,2026-06-06T15:18:03.134592,13.51006865,.00019766,88.9702,301.6707,106.4407,253.6961,0,U,63160,999,7122,.19947308E-3,.141E-5,0
QIANFAN-75,2025-046C,2026-06-06T13:13:27.833376,13.51005783,.00150351,88.9703,301.9160,345.4806,14.5911,0,U,63161,999,7108,.18386719E-3,.131E-5,0
QIANFAN-76,2025-046D,2026-06-06T13:07:31.157760,13.51012585,.00126017,88.9703,301.8962,347.4497,12.6339,0,U,63162,999,7109,.26168395E-3,.181E-5,0
QIANFAN-77,2025-046E,2026-06-06T15:13:12.248256,13.96198602,.00128872,88.9708,298.4445,246.9428,113.0391,0,U,63163,999,7299,.21947782E-3,.315E-5,0
QIANFAN-78,2025-046F,2026-06-06T14:06:47.050848,13.51011789,.00140477,88.9703,301.7542,348.8762,11.2076,0,U,63164,999,7117,.22773927E-3,.159E-5,0
QIANFAN-79,2025-046G,2026-06-06T13:01:42.927744,13.51009648,.00137835,88.9705,301.8729,347.2878,12.7924,0,U,63165,999,7111,.21098819E-3,.148E-5,0
QIANFAN-80,2025-046H,2026-06-06T15:12:05.528448,13.51007297,.00127897,88.9703,301.5656,352.4647,7.6310,0,U,63166,999,7128,.17575775E-3,.126E-5,0
QIANFAN-81,2025-046J,2026-06-06T12:55:52.435776,13.51015008,.00137092,88.9702,301.6432,340.5978,19.4650,0,U,63167,999,7122,.19346529E-3,.137E-5,0
QIANFAN-82,2025-046K,2026-06-06T15:29:45.084480,13.51009274,.0011804,88.9703,301.6760,348.9781,11.1110,0,U,63168,999,7122,.1951041E-3,.138E-5,0
QIANFAN-83,2025-046L,2026-06-06T13:45:47.249856,13.62039492,.00124149,88.9705,301.1136,321.5102,38.5169,0,U,63169,999,7153,.20979538E-3,.174E-5,0
QIANFAN-84,2025-046M,2026-06-06T14:25:56.564832,13.51033923,.00147345,88.9703,301.8135,343.4956,16.5713,0,U,63170,999,7114,.22644104E-3,.158E-5,0
QIANFAN-85,2025-046N,2026-06-06T14:18:38.985984,13.51016578,.00122609,88.9702,301.6842,347.5019,12.5826,0,U,63171,999,7121,.1665357E-3,.12E-5,0
QIANFAN-86,2025-046P,2026-06-06T14:30:44.035776,13.51014481,.00102612,88.9704,301.5496,353.8021,6.3002,0,U,63172,999,7129,.1870452E-3,.133E-5,0
QIANFAN-87,2025-046Q,2026-06-06T13:49:06.808800,13.51016270,.00106295,88.9701,301.6577,348.5179,11.5728,0,U,63173,999,7122,.21362651E-3,.15E-5,0
QIANFAN-88,2025-046R,2026-06-06T14:12:47.158272,13.51007837,.00113609,88.9703,301.6149,356.6172,3.4900,0,U,63174,999,7125,.17882088E-3,.128E-5,0
