STARLINK-11522 [DTC]    
1 63141U 25043K   26157.06642611  .00328343  00000+0  24525-2 0  9998
2 63141  43.0005  77.8173 0001663 243.9239 116.1458 15.70937900 73197
STARLINK-11503 [DTC]    
1 63142U 25043L   26157.49557796  .00228487  00000+0  17279-2 0  9991
2 63142  42.9988  75.0057 0002121 273.9523  86.1102 15.70946035 73265
STARLINK-11579 [DTC]    
1 63143U 25043M   26157.05580799  .00364027  00000+0  27063-2 0  9996
2 63143  42.9998  77.7303 0001726 237.3555 122.7147 15.70942992 73252
STARLINK-11581 [DTC]    
1 63144U 25043N   26157.46386796  .00234785  00000+0  17799-2 0  9995
2 63144  42.9999  75.6439 0004020 288.6316  71.4115 15.70863716 73436
STARLINK-32949          
1 63145U 25043P   26157.51395583  .00020645  00000+0  75694-3 0  9993
2 63145  42.9999 234.8742 0004077 288.8373  71.2037 15.27605607 71513
STARLINK-32952          
1 63146U 25043Q   26156.96162458  .00031958  00000+0  11636-2 0  9999
2 63146  42.9999 244.5186 0001423 257.1950 102.8743 15.27643059 71413
STARLINK-32936          
1 63147U 25043R   26157.22575206  .00014406  00000+0  53232-3 0  9997
2 63147  43.0035 243.0845 0002202 274.7702  85.2899 15.27559558 70829
STARLINK-32937          
1 63148U 25043S   26157.48825829  .00024593  00000+0  89941-3 0  9999
2 63148  42.9993 234.6845 0001795 272.7303  87.3344 15.27609280 70947
STARLINK-32939          
1 63149U 25043T   26157.47799389  .00040173  00000+0  14590-2 0  9999
2 63149  43.0066 234.6156 0003810 296.1919  63.8540 15.27629819 70946
STARLINK-32919          
1 63150U 25043U   26157.49209766  .00027406  00000+0  10001-2 0  9995
2 63150  43.0000 234.7108 0001724 272.1287  87.9367 15.27635390 70943
STARLINK-32876          
1 63151U 25043V   26157.52408949  .00019932  00000+0  73120-3 0  9991
2 63151  43.0040 234.0869 0004671 287.1855  72.8485 15.27602839 70953
STARLINK-32915          
1 63152U 25043W   26156.96548643  .00023779  00000+0  87007-3 0  9998
2 63152  42.9983 244.5161 0000362 223.7596 136.3227 15.27609116 70786
SEDNA-2                 
1 63153U 25009DQ  26157.46278996  .00009010  00000+0  53086-3 0  9990
2 63153  97.4542 231.2696 0010734 100.2635 259.9807 15.11771142 76500
QIANFAN-73              
1 63159U 25046A   26157.65388989  .00000134  00000+0  18822-3 0  9999
2 63159  88.9701 301.7796 0013896 342.3283  17.7383 13.51016600 71161
QIANFAN-74              
1 63160U 25046B   26157.63753628  .00000141  00000+0  19947-3 0  9992
2 63160  88.9702 301.6707 0001976 106.4407 253.6961 13.51006865 71220
QIANFAN-75              
1 63161U 25046C   26157.55101659  .00000131  00000+0  18387-3 0  9991
2 63161  88.9703 301.9160 0015035 345.4806  14.5911 13.51005783 71088
QIANFAN-76              
1 63162U 25046D   26157.54688840  .00000181  00000+0  26168-3 0  9994
2 63162  88.9703 301.8962 0012601 347.4497  12.6339 13.51012585 71094
QIANFAN-77              
1 63163U 25046E   26157.63416954  .00000315  00000+0  21948-3 0  9990
2 63163  88.9708 298.4445 0012887 246.9428 113.0391 13.96198602 72998
QIANFAN-78              
1 63164U 25046F   26157.58804457  .00000159  00000+0  22774-3 0  9998
2 63164  88.9703 301.7542 0014047 348.8762  11.2076 13.51011789 71172
QIANFAN-79              
1 63165U 25046G   26157.54285796  .00000148  00000+0  21099-3 0  9991
2 63165  88.9705 301.8729 0013783 347.2878  12.7924 13.51009648 71113
QIANFAN-80              
1 63166U 25046H   26157.63339732  .00000126  00000+0  17576-3 0  9993
2 63166  88.9703 301.5656 0012789 352.4647   7.6310 13.51007297 71283
QIANFAN-81              
1 63167U 25046J   26157.53880134  .00000137  00000+0  19347-3 0  9990
2 63167  88.9702 301.6432 0013709 340.5978  19.4650 13.51015008 71225
QIANFAN-82              
1 63168U 25046K   26157.64566070  .00000138  00000+0  19510-3 0  9996
2 63168  88.9703 301.6760 0011804 348.9781  11.1110 13.51009274 71227
QIANFAN-83              
1 63169U 25046L   26157.57346354  .00000174  00000+0  20980-3 0  9993
2 63169  88.9705 301.1136 0012414 321.5102  38.5169 13.62039492 71532
QIANFAN-84              
1 63170U 25046M   26157.60134913  .00000158  00000+0  22644-3 0  9996
2 63170  88.9703 301.8135 0014734 343.4956  16.5713 13.51033923 71144
QIANFAN-85              
1 63171U 25046N   26157.59628456  .00000120  00000+0  16654-3 0  9998
2 63171  88.9702 301.6842 0012260 347.5019  12.5826 13.51016578 71210
QIANFAN-86              
1 63172U 25046P   26157.60467634  .00000133  00000+0  18705-3 0  9993
2 63172  88.9704 301.5496 0010261 353.8021   6.3002 13.51014481 71295
QIANFAN-87              
1 63173U 25046Q   26157.57577325  .00000150  00000+0  21363-3 0  9992
2 63173  88.9701 301.6577 0010629 348.5179  11.5728 13.51016270 71221
QIANFAN-88              
1 63174U 25046R   26157.59221248  .00000128  00000+0  17882-3 0  9991
2 63174  88.9703 301.6149 0011360 356.6172   3.4900 13.51007837 71259
